DRAGONFLY               
1 65729U 98067XH  26016.84470075  .00406405  73228-4  12855-2 0  9997
2 65729  51.6199 313.8671 0007886 127.0403 233.1325 15.90668754 18714
1998-067XK              
1 65731U 98067XK  26016.24101685  .00117081  00000+0  79470-3 0  9991
2 65731  51.6285 321.1647 0004771  90.1861 269.9685 15.74078898 18561
RSP-03                  
1 65732U 98067XL  26016.84522938  .00225156  00000+0  11123-2 0  9999
2 65732  51.6248 316.1673 0005771 103.9484 256.2160 15.80866466 18693
GHS-01                  
1 65733U 98067XM  26016.84063096  .01241179  92235-3  15825-2 0  9997
2 65733  51.6201 311.5691 0007776 148.8816 211.2658 16.06837463 18750
YOTSUBA-KULOVER         
1 65941U 98067XN  26016.96026728  .00084793  00000+0  83791-3 0  9991
2 65941  51.6289 322.2321 0004162 114.5812 245.5617 15.65146456 15366
BOTAN                   
1 65942U 98067XP  26016.91511858  .00160486  00000+0  11680-2 0  9991
2 65942  51.6265 320.4169 0004907 115.8255 244.3250 15.72291842 15383
E-KAGAKU-1              
1 65943U 98067XQ  26016.83249781  .00076024  00000+0  75412-3 0  9994
2 65943  51.6304 322.8858 0002722 116.6833 243.4442 15.65101592 15346
HRC MONOBLOCK CAMERA    
1 66052U 98067XR  26016.34505276  .00031624  00000+0  43890-3 0  9998
2 66052  51.6308 328.6251 0001102   9.3617 350.7395 15.56741442 14221
HTV-X1                  
1 66174U 25241A   26016.88563267  .00011056  00000+0  20598-3 0  9997
2 66174  51.6335 328.4813 0007771  26.7144 333.4244 15.49337726   510
SZ-21 MODULE            
1 66515U 25246C   26016.67047617  .00025602  00000+0  26015-3 0  9996
2 66515  41.4744 162.6281 0002310 185.6231 174.4584 15.64580713  9919
SHENZHOU-22             
1 66645U 25272A   26016.73526015  .00015334  00000+0  18356-3 0  9990
2 66645  41.4654 164.0144 0011263 298.2256  61.7445 15.60566076267644
SOYUZ-MS 28             
1 66664U 25275A   26016.88563267  .00011056  00000+0  20598-3 0  9998
2 66664  51.6335 328.4813 0007771  26.7144 333.4244 15.49337726  1289
