CCSDS_OMM_VERS = 2.0
CREATION_DATE  = 
ORIGINATOR     = 

OBJECT_NAME    = DRAGONFLY
OBJECT_ID      = 1998-067XH
CENTER_NAME    = EARTH
REF_FRAME      = TEME
TIME_SYSTEM    = UTC
MEAN_ELEMENT_THEORY = SGP/SGP4

EPOCH          = 2026-01-16T20:16:22.144800
MEAN_MOTION    = 15.90668754
ECCENTRICITY   = .00078863
INCLINATION    = 51.6199
RA_OF_ASC_NODE = 313.8671
ARG_OF_PERICENTER = 127.0403
MEAN_ANOMALY   = 233.1325

EPHEMERIS_TYPE = 0
CLASSIFICATION_TYPE = U
NORAD_CAT_ID   = 65729
ELEMENT_SET_NO = 999
REV_AT_EPOCH   = 1871
BSTAR          = .12855306E-2
MEAN_MOTION_DOT = .406405E-2
MEAN_MOTION_DDOT = .7322812E-4

CCSDS_OMM_VERS = 2.0
CREATION_DATE  = 
ORIGINATOR     = 

OBJECT_NAME    = 1998-067XK
OBJECT_ID      = 1998-067XK
CENTER_NAME    = EARTH
REF_FRAME      = TEME
TIME_SYSTEM    = UTC
MEAN_ELEMENT_THEORY = SGP/SGP4

EPOCH          = 2026-01-16T05:47:03.855840
MEAN_MOTION    = 15.74078898
ECCENTRICITY   = .0004771
INCLINATION    = 51.6285
RA_OF_ASC_NODE = 321.1647
ARG_OF_PERICENTER = 90.1861
MEAN_ANOMALY   = 269.9685

EPHEMERIS_TYPE = 0
CLASSIFICATION_TYPE = U
NORAD_CAT_ID   = 65731
ELEMENT_SET_NO = 999
REV_AT_EPOCH   = 1856
BSTAR          = .79470214E-3
MEAN_MOTION_DOT = .117081E-2
MEAN_MOTION_DDOT = 0

CCSDS_OMM_VERS = 2.0
CREATION_DATE  = 
ORIGINATOR     = 

OBJECT_NAME    = RSP-03
OBJECT_ID      = 1998-067XL
CENTER_NAME    = EARTH
REF_FRAME      = TEME
TIME_SYSTEM    = UTC
MEAN_ELEMENT_THEORY = SGP/SGP4

EPOCH          = 2026-01-16T20:17:07.818432
MEAN_MOTION    = 15.80866466
ECCENTRICITY   = .00057713
INCLINATION    = 51.6248
RA_OF_ASC_NODE = 316.1673
ARG_OF_PERICENTER = 103.9484
MEAN_ANOMALY   = 256.2160

EPHEMERIS_TYPE = 0
CLASSIFICATION_TYPE = U
NORAD_CAT_ID   = 65732
ELEMENT_SET_NO = 999
REV_AT_EPOCH   = 1869
BSTAR          = .11122571E-2
MEAN_MOTION_DOT = .225156E-2
MEAN_MOTION_DDOT = 0

CCSDS_OMM_VERS = 2.0
CREATION_DATE  = 
ORIGINATOR     = 

OBJECT_NAME    = GHS-01
OBJECT_ID      = 1998-067XM
CENTER_NAME    = EARTH
REF_FRAME      = TEME
TIME_SYSTEM    = UTC
MEAN_ELEMENT_THEORY = SGP/SGP4

EPOCH          = 2026-01-16T20:10:30.514944
MEAN_MOTION    = 16.06837463
ECCENTRICITY   = .00077765
INCLINATION    = 51.6201
RA_OF_ASC_NODE = 311.5691
ARG_OF_PERICENTER = 148.8816
MEAN_ANOMALY   = 211.2658

EPHEMERIS_TYPE = 0
CLASSIFICATION_TYPE = U
NORAD_CAT_ID   = 65733
ELEMENT_SET_NO = 999
REV_AT_EPOCH   = 1875
BSTAR          = .15825083E-2
MEAN_MOTION_DOT = .1241179E-1
MEAN_MOTION_DDOT = .92234864E-3

CCSDS_OMM_VERS = 2.0
CREATION_DATE  = 
ORIGINATOR     = 

OBJECT_NAME    = YOTSUBA-KULOVER
OBJECT_ID      = 1998-067XN
CENTER_NAME    = EARTH
REF_FRAME      = TEME
TIME_SYSTEM    = UTC
MEAN_ELEMENT_THEORY = SGP/SGP4

EPOCH          = 2026-01-16T23:02:47.092992
MEAN_MOTION    = 15.65146456
ECCENTRICITY   = .00041621
INCLINATION    = 51.6289
RA_OF_ASC_NODE = 322.2321
ARG_OF_PERICENTER = 114.5812
MEAN_ANOMALY   = 245.5617

EPHEMERIS_TYPE = 0
CLASSIFICATION_TYPE = U
NORAD_CAT_ID   = 65941
ELEMENT_SET_NO = 999
REV_AT_EPOCH   = 1536
BSTAR          = .8379063E-3
MEAN_MOTION_DOT = .84793E-3
MEAN_MOTION_DDOT = 0

CCSDS_OMM_VERS = 2.0
CREATION_DATE  = 
ORIGINATOR     = 

OBJECT_NAME    = BOTAN
OBJECT_ID      = 1998-067XP
CENTER_NAME    = EARTH
REF_FRAME      = TEME
TIME_SYSTEM    = UTC
MEAN_ELEMENT_THEORY = SGP/SGP4

EPOCH          = 2026-01-16T21:57:46.245312
MEAN_MOTION    = 15.72291842
ECCENTRICITY   = .00049075
INCLINATION    = 51.6265
RA_OF_ASC_NODE = 320.4169
ARG_OF_PERICENTER = 115.8255
MEAN_ANOMALY   = 244.3250

EPHEMERIS_TYPE = 0
CLASSIFICATION_TYPE = U
NORAD_CAT_ID   = 65942
ELEMENT_SET_NO = 999
REV_AT_EPOCH   = 1538
BSTAR          = .11680012E-2
MEAN_MOTION_DOT = .160486E-2
MEAN_MOTION_DDOT = 0

CCSDS_OMM_VERS = 2.0
CREATION_DATE  = 
ORIGINATOR     = 

OBJECT_NAME    = E-KAGAKU-1
OBJECT_ID      = 1998-067XQ
CENTER_NAME    = EARTH
REF_FRAME      = TEME
TIME_SYSTEM    = UTC
MEAN_ELEMENT_THEORY = SGP/SGP4

EPOCH          = 2026-01-16T19:58:47.810784
MEAN_MOTION    = 15.65101592
ECCENTRICITY   = .00027223
INCLINATION    = 51.6304
RA_OF_ASC_NODE = 322.8858
ARG_OF_PERICENTER = 116.6833
MEAN_ANOMALY   = 243.4442

EPHEMERIS_TYPE = 0
CLASSIFICATION_TYPE = U
NORAD_CAT_ID   = 65943
ELEMENT_SET_NO = 999
REV_AT_EPOCH   = 1534
BSTAR          = .75412259E-3
MEAN_MOTION_DOT = .76024E-3
MEAN_MOTION_DDOT = 0

CCSDS_OMM_VERS = 2.0
CREATION_DATE  = 
ORIGINATOR     = 

OBJECT_NAME    = HRC MONOBLOCK CAMERA
OBJECT_ID      = 1998-067XR
CENTER_NAME    = EARTH
REF_FRAME      = TEME
TIME_SYSTEM    = UTC
MEAN_ELEMENT_THEORY = SGP/SGP4

EPOCH          = 2026-01-16T08:16:52.558464
MEAN_MOTION    = 15.56741442
ECCENTRICITY   = .00011021
INCLINATION    = 51.6308
RA_OF_ASC_NODE = 328.6251
ARG_OF_PERICENTER = 9.3617
MEAN_ANOMALY   = 350.7395

EPHEMERIS_TYPE = 0
CLASSIFICATION_TYPE = U
NORAD_CAT_ID   = 66052
ELEMENT_SET_NO = 999
REV_AT_EPOCH   = 1422
BSTAR          = .43890182E-3
MEAN_MOTION_DOT = .31624E-3
MEAN_MOTION_DDOT = 0

CCSDS_OMM_VERS = 2.0
CREATION_DATE  = 
ORIGINATOR     = 

OBJECT_NAME    = HTV-X1
OBJECT_ID      = 2025-241A
CENTER_NAME    = EARTH
REF_FRAME      = TEME
TIME_SYSTEM    = UTC
MEAN_ELEMENT_THEORY = SGP/SGP4

EPOCH          = 2026-01-16T21:15:18.662688
MEAN_MOTION    = 15.49337726
ECCENTRICITY   = .00077719
INCLINATION    = 51.6335
RA_OF_ASC_NODE = 328.4813
ARG_OF_PERICENTER = 26.7144
MEAN_ANOMALY   = 333.4244

EPHEMERIS_TYPE = 0
CLASSIFICATION_TYPE = U
NORAD_CAT_ID   = 66174
ELEMENT_SET_NO = 999
REV_AT_EPOCH   = 51
BSTAR          = .20598128E-3
MEAN_MOTION_DOT = .11056E-3
MEAN_MOTION_DDOT = 0

CCSDS_OMM_VERS = 2.0
CREATION_DATE  = 
ORIGINATOR     = 

OBJECT_NAME    = SZ-21 MODULE
OBJECT_ID      = 2025-246C
CENTER_NAME    = EARTH
REF_FRAME      = TEME
TIME_SYSTEM    = UTC
MEAN_ELEMENT_THEORY = SGP/SGP4

EPOCH          = 2026-01-16T16:05:29.141088
MEAN_MOTION    = 15.64580713
ECCENTRICITY   = .00023105
INCLINATION    = 41.4744
RA_OF_ASC_NODE = 162.6281
ARG_OF_PERICENTER = 185.6231
MEAN_ANOMALY   = 174.4584

EPHEMERIS_TYPE = 0
CLASSIFICATION_TYPE = U
NORAD_CAT_ID   = 66515
ELEMENT_SET_NO = 999
REV_AT_EPOCH   = 991
BSTAR          = .26015423E-3
MEAN_MOTION_DOT = .25602E-3
MEAN_MOTION_DDOT = 0

CCSDS_OMM_VERS = 2.0
CREATION_DATE  = 
ORIGINATOR     = 

OBJECT_NAME    = SHENZHOU-22
OBJECT_ID      = 2025-272A
CENTER_NAME    = EARTH
REF_FRAME      = TEME
TIME_SYSTEM    = UTC
MEAN_ELEMENT_THEORY = SGP/SGP4

EPOCH          = 2026-01-16T17:38:46.476960
MEAN_MOTION    = 15.60566076
ECCENTRICITY   = .00112636
INCLINATION    = 41.4654
RA_OF_ASC_NODE = 164.0144
ARG_OF_PERICENTER = 298.2256
MEAN_ANOMALY   = 61.7445

EPHEMERIS_TYPE = 0
CLASSIFICATION_TYPE = U
NORAD_CAT_ID   = 66645
ELEMENT_SET_NO = 999
REV_AT_EPOCH   = 26764
BSTAR          = .18355705E-3
MEAN_MOTION_DOT = .15334E-3
MEAN_MOTION_DDOT = 0

CCSDS_OMM_VERS = 2.0
CREATION_DATE  = 
ORIGINATOR     = 

OBJECT_NAME    = SOYUZ-MS 28
OBJECT_ID      = 2025-275A
CENTER_NAME    = EARTH
REF_FRAME      = TEME
TIME_SYSTEM    = UTC
MEAN_ELEMENT_THEORY = SGP/SGP4

EPOCH          = 2026-01-16T21:15:18.662688
MEAN_MOTION    = 15.49337726
ECCENTRICITY   = .00077719
INCLINATION    = 51.6335
RA_OF_ASC_NODE = 328.4813
ARG_OF_PERICENTER = 26.7144
MEAN_ANOMALY   = 333.4244

EPHEMERIS_TYPE = 0
CLASSIFICATION_TYPE = U
NORAD_CAT_ID   = 66664
ELEMENT_SET_NO = 999
REV_AT_EPOCH   = 128
BSTAR          = .20598128E-3
MEAN_MOTION_DOT = .11056E-3
MEAN_MOTION_DDOT = 0

